{
    "links": {
        "self": "http://www.neowsapp.com/rest/v1/neo/3601556?api_key=iIulBulltgU6a56xZRHN4H3l9WmuAYTsLGpBGhQ2"
    },
    "id": "3601556",
    "neo_reference_id": "3601556",
    "name": "(2012 FZ13)",
    "designation": "2012 FZ13",
    "nasa_jpl_url": "http://ssd.jpl.nasa.gov/sbdb.cgi?sstr=3601556",
    "absolute_magnitude_h": 24.1,
    "estimated_diameter": {
        "kilometers": {
            "estimated_diameter_min": 0.040230458,
            "estimated_diameter_max": 0.0899580388
        },
        "meters": {
            "estimated_diameter_min": 40.2304579834,
            "estimated_diameter_max": 89.9580388169
        },
        "miles": {
            "estimated_diameter_min": 0.0249980399,
            "estimated_diameter_max": 0.0558973165
        },
        "feet": {
            "estimated_diameter_min": 131.9896957704,
            "estimated_diameter_max": 295.1379320721
        }
    },
    "is_potentially_hazardous_asteroid": false,
    "close_approach_data": [
        {
            "close_approach_date": "2011-03-28",
            "close_approach_date_full": "2011-Mar-28 17:20",
            "epoch_date_close_approach": 1301332800000,
            "relative_velocity": {
                "kilometers_per_second": "10.8057166936",
                "kilometers_per_hour": "38900.5800969859",
                "miles_per_hour": "24171.3076719299"
            },
            "miss_distance": {
                "astronomical": "0.3702432399",
                "lunar": "144.0246203211",
                "kilometers": "55387600.070939013",
                "miles": "34416258.7809558594"
            },
            "orbiting_body": "Earth"
        },
        {
            "close_approach_date": "2012-03-02",
            "close_approach_date_full": "2012-Mar-02 15:35",
            "epoch_date_close_approach": 1330702500000,
            "relative_velocity": {
                "kilometers_per_second": "11.8360526595",
                "kilometers_per_hour": "42609.7895742803",
                "miles_per_hour": "26476.0661940854"
            },
            "miss_distance": {
                "astronomical": "0.119931763",
                "lunar": "46.653455807",
                "kilometers": "17941536.29014481",
                "miles": "11148353.694665978"
            },
            "orbiting_body": "Earth"
        },
        {
            "close_approach_date": "2013-03-11",
            "close_approach_date_full": "2013-Mar-11 20:40",
            "epoch_date_close_approach": 1363034400000,
            "relative_velocity": {
                "kilometers_per_second": "21.1953484036",
                "kilometers_per_hour": "76303.2542530694",
                "miles_per_hour": "47411.8748440808"
            },
            "miss_distance": {
                "astronomical": "0.2450701883",
                "lunar": "95.3323032487",
                "kilometers": "36661978.170178921",
                "miles": "22780696.8799982698"
            },
            "orbiting_body": "Earth"
        },
        {
            "close_approach_date": "2101-07-06",
            "close_approach_date_full": "2101-Jul-06 23:28",
            "epoch_date_close_approach": 4150135680000,
            "relative_velocity": {
                "kilometers_per_second": "24.1394072734",
                "kilometers_per_hour": "86901.866184074",
                "miles_per_hour": "53997.4401297653"
            },
            "miss_distance": {
                "astronomical": "0.3911873532",
                "lunar": "152.1718803948",
                "kilometers": "58520794.809657684",
                "miles": "36363135.7137126792"
            },
            "orbiting_body": "Earth"
        }
    ],
    "orbital_data": {
        "orbit_id": "6",
        "orbit_determination_date": "2017-04-06 08:50:25",
        "first_observation_date": "2012-03-21",
        "last_observation_date": "2012-03-29",
        "data_arc_in_days": 8,
        "observations_used": 17,
        "orbit_uncertainty": "9",
        "minimum_orbit_intersection": ".0667609",
        "jupiter_tisserand_invariant": "5.804",
        "epoch_osculation": "2456010.5",
        "eccentricity": ".4444947623479109",
        "semi_major_axis": "1.036330298036748",
        "inclination": "11.76184422397027",
        "ascending_node_longitude": "180.7870888938432",
        "orbital_period": "385.3414434375802",
        "perihelion_distance": ".575686908496964",
        "perihelion_argument": "228.2075108575161",
        "aphelion_distance": "1.496973687576532",
        "perihelion_time": "2455917.965627195075",
        "mean_anomaly": "86.44897863203528",
        "mean_motion": ".9342363925055335",
        "equinox": "J2000",
        "orbit_class": {
            "orbit_class_type": "APO",
            "orbit_class_description": "Near-Earth asteroid orbits which cross the Earth’s orbit similar to that of 1862 Apollo",
            "orbit_class_range": "a (semi-major axis) > 1.0 AU; q (perihelion) < 1.017 AU"
        }
    },
    "is_sentry_object": false
}